{
  "type": "FeatureCollection",
  "features": [
    {
      "type": "Feature",
      "properties": {
        "norad_id": 66611,
        "name": "STARLINK-35583",
        "group": "last-30-days",
        "lat": -42.600053208380146,
        "lon": 134.4553849398729,
        "alt_km": 355.75391549074084,
        "timestamp": "2025-12-05T18:53:12.097764+00:00",
        "meta_object_name": "STARLINK-35583",
        "meta_object_id": "2025-270Z",
        "meta_epoch": "2025-12-05T06:00:02.000160",
        "meta_mean_motion": 15.74051648,
        "meta_eccentricity": 0.00014753,
        "meta_inclination": 42.9988,
        "meta_ra_of_asc_node": 237.0034,
        "meta_arg_of_pericenter": 280.8157,
        "meta_mean_anomaly": 178.2946,
        "meta_ephemeris_type": 0,
        "meta_classification_type": "U",
        "meta_norad_cat_id": 66611,
        "meta_element_set_no": 999,
        "meta_rev_at_epoch": 330,
        "meta_bstar": -0.014751424,
        "meta_mean_motion_dot": -0.01888612,
        "meta_mean_motion_ddot": 0,
        "tle_line1": "1 66611U 25270Z   25339.25002315 -.01888612  00000+0 -14751-1 0  9990",
        "tle_line2": "2 66611  42.9988 237.0034 0001475 280.8157 178.2946 15.74051648  3303"
      },
      "geometry": {
        "type": "Point",
        "coordinates": [
          134.4553849398729,
          -42.600053208380146
        ]
      }
    },
    {
      "type": "Feature",
      "properties": {
        "norad_id": 66612,
        "name": "STARLINK-36039",
        "group": "last-30-days",
        "lat": -42.781947128292444,
        "lon": 137.0460210016017,
        "alt_km": 355.6946010884121,
        "timestamp": "2025-12-05T18:53:12.097775+00:00",
        "meta_object_name": "STARLINK-36039",
        "meta_object_id": "2025-270AA",
        "meta_epoch": "2025-12-05T06:00:02.000160",
        "meta_mean_motion": 15.74049735,
        "meta_eccentricity": 0.00015065,
        "meta_inclination": 42.9988,
        "meta_ra_of_asc_node": 236.9983,
        "meta_arg_of_pericenter": 277.7785,
        "meta_mean_anomaly": 183.2493,
        "meta_ephemeris_type": 0,
        "meta_classification_type": "U",
        "meta_norad_cat_id": 66612,
        "meta_element_set_no": 999,
        "meta_rev_at_epoch": 319,
        "meta_bstar": -0.014725639,
        "meta_mean_motion_dot": -0.01885644,
        "meta_mean_motion_ddot": 0,
        "tle_line1": "1 66612U 25270AA  25339.25002315 -.01885644  00000+0 -14726-1 0  9995",
        "tle_line2": "2 66612  42.9988 236.9983 0001506 277.7785 183.2493 15.74049735  3196"
      },
      "geometry": {
        "type": "Point",
        "coordinates": [
          137.0460210016017,
          -42.781947128292444
        ]
      }
    },
    {
      "type": "Feature",
      "properties": {
        "norad_id": 66613,
        "name": "STARLINK-36037",
        "group": "last-30-days",
        "lat": -42.904693319131304,
        "lon": 139.646853760892,
        "alt_km": 355.6547245333368,
        "timestamp": "2025-12-05T18:53:12.097786+00:00",
        "meta_object_name": "STARLINK-36037",
        "meta_object_id": "2025-270AB",
        "meta_epoch": "2025-12-05T06:00:02.000160",
        "meta_mean_motion": 15.7405029,
        "meta_eccentricity": 0.0001553,
        "meta_inclination": 42.9987,
        "meta_ra_of_asc_node": 236.9939,
        "meta_arg_of_pericenter": 278.4437,
        "meta_mean_anomaly": 184.4984,
        "meta_ephemeris_type": 0,
        "meta_classification_type": "U",
        "meta_norad_cat_id": 66613,
        "meta_element_set_no": 999,
        "meta_rev_at_epoch": 319,
        "meta_bstar": -0.014714544,
        "meta_mean_motion_dot": -0.01884495,
        "meta_mean_motion_ddot": 0,
        "tle_line1": "1 66613U 25270AB  25339.25002315 -.01884495  00000+0 -14715-1 0  9997",
        "tle_line2": "2 66613  42.9987 236.9939 0001553 278.4437 184.4984 15.74050290  3197"
      },
      "geometry": {
        "type": "Point",
        "coordinates": [
          139.646853760892,
          -42.904693319131304
        ]
      }
    },
    {
      "type": "Feature",
      "properties": {
        "norad_id": 66614,
        "name": "STARLINK-36040",
        "group": "last-30-days",
        "lat": -42.97252791503475,
        "lon": 144.86570293172667,
        "alt_km": 355.73546455784253,
        "timestamp": "2025-12-05T18:53:12.097798+00:00",
        "meta_object_name": "STARLINK-36040",
        "meta_object_id": "2025-270AC",
        "meta_epoch": "2025-12-05T06:00:02.000160",
        "meta_mean_motion": 15.7405875,
        "meta_eccentricity": 0.0001442,
        "meta_inclination": 42.9989,
        "meta_ra_of_asc_node": 236.984,
        "meta_arg_of_pericenter": 280.0135,
        "meta_mean_anomaly": 186.7594,
        "meta_ephemeris_type": 0,
        "meta_classification_type": "U",
        "meta_norad_cat_id": 66614,
        "meta_element_set_no": 999,
        "meta_rev_at_epoch": 303,
        "meta_bstar": -0.014809428,
        "meta_mean_motion_dot": -0.01895517,
        "meta_mean_motion_ddot": 0,
        "tle_line1": "1 66614U 25270AC  25339.25002315 -.01895517  00000+0 -14809-1 0  9999",
        "tle_line2": "2 66614  42.9989 236.9840 0001442 280.0135 186.7594 15.74058750  3036"
      },
      "geometry": {
        "type": "Point",
        "coordinates": [
          144.86570293172667,
          -42.97252791503475
        ]
      }
    },
    {
      "type": "Feature",
      "properties": {
        "norad_id": 66615,
        "name": "STARLINK-35988",
        "group": "last-30-days",
        "lat": -42.968490840733594,
        "lon": 142.25597239335963,
        "alt_km": 355.67049246852366,
        "timestamp": "2025-12-05T18:53:12.097808+00:00",
        "meta_object_name": "STARLINK-35988",
        "meta_object_id": "2025-270AD",
        "meta_epoch": "2025-12-05T06:00:02.000160",
        "meta_mean_motion": 15.74054195,
        "meta_eccentricity": 0.0001506,
        "meta_inclination": 42.9989,
        "meta_ra_of_asc_node": 236.9883,
        "meta_arg_of_pericenter": 275.904,
        "meta_mean_anomaly": 188.9528,
        "meta_ephemeris_type": 0,
        "meta_classification_type": "U",
        "meta_norad_cat_id": 66615,
        "meta_element_set_no": 999,
        "meta_rev_at_epoch": 303,
        "meta_bstar": -0.014755149,
        "meta_mean_motion_dot": -0.01889235,
        "meta_mean_motion_ddot": 0,
        "tle_line1": "1 66615U 25270AD  25339.25002315 -.01889235  00000+0 -14755-1 0  9990",
        "tle_line2": "2 66615  42.9989 236.9883 0001506 275.9040 188.9528 15.74054195  3033"
      },
      "geometry": {
        "type": "Point",
        "coordinates": [
          142.25597239335963,
          -42.968490840733594
        ]
      }
    },
    {
      "type": "Feature",
      "properties": {
        "norad_id": 66616,
        "name": "STARLINK-35391",
        "group": "last-30-days",
        "lat": -42.917036269655256,
        "lon": 147.47516485548732,
        "alt_km": 355.6544682110971,
        "timestamp": "2025-12-05T18:53:12.097818+00:00",
        "meta_object_name": "STARLINK-35391",
        "meta_object_id": "2025-270AE",
        "meta_epoch": "2025-12-05T06:00:02.000160",
        "meta_mean_motion": 15.74053516,
        "meta_eccentricity": 0.00015441,
        "meta_inclination": 42.9989,
        "meta_ra_of_asc_node": 236.9792,
        "meta_arg_of_pericenter": 281.2321,
        "meta_mean_anomaly": 187.4607,
        "meta_ephemeris_type": 0,
        "meta_classification_type": "U",
        "meta_norad_cat_id": 66616,
        "meta_element_set_no": 999,
        "meta_rev_at_epoch": 330,
        "meta_bstar": -0.014757137,
        "meta_mean_motion_dot": -0.01889441,
        "meta_mean_motion_ddot": 0,
        "tle_line1": "1 66616U 25270AE  25339.25002315 -.01889441  00000+0 -14757-1 0  9992",
        "tle_line2": "2 66616  42.9989 236.9792 0001544 281.2321 187.4607 15.74053516  3305"
      },
      "geometry": {
        "type": "Point",
        "coordinates": [
          147.47516485548732,
          -42.917036269655256
        ]
      }
    },
    {
      "type": "Feature",
      "properties": {
        "norad_id": 66617,
        "name": "STARLINK-35940",
        "group": "last-30-days",
        "lat": 18.830326666372514,
        "lon": 26.4040594614285,
        "alt_km": 322.59624646256907,
        "timestamp": "2025-12-05T18:53:12.097828+00:00",
        "meta_object_name": "STARLINK-35940",
        "meta_object_id": "2025-271A",
        "meta_epoch": "2025-12-04T19:28:40.696032",
        "meta_mean_motion": 15.80789565,
        "meta_eccentricity": 0.00032802,
        "meta_inclination": 53.1571,
        "meta_ra_of_asc_node": 226.1131,
        "meta_arg_of_pericenter": 234.7187,
        "meta_mean_anomaly": 125.3529,
        "meta_ephemeris_type": 0,
        "meta_classification_type": "U",
        "meta_norad_cat_id": 66617,
        "meta_element_set_no": 999,
        "meta_rev_at_epoch": 296,
        "meta_bstar": 0.0031967141,
        "meta_mean_motion_dot": 0.00679795,
        "meta_mean_motion_ddot": 0,
        "tle_line1": "1 66617U 25271A   25338.81158213  .00679795  00000+0  31967-2 0  9993",
        "tle_line2": "2 66617  53.1571 226.1131 0003280 234.7187 125.3529 15.80789565  2969"
      },
      "geometry": {
        "type": "Point",
        "coordinates": [
          26.4040594614285,
          18.830326666372514
        ]
      }
    }
  ]
}